1 13138U 82033A   88023.82150955  .00001749  00000-0  61225-4 0  9450
2 13138  51.6121 271.3487 0000675  11.5542 348.5481 15.31936145329793
1 13138U 82033A   88024.86525677  .00001748  00000-0  61225-4 0  9462
2 13138  51.6143 266.3125 0000556   6.4687 353.6393 15.31939364329954
1 13138U 82033A   88024.86553447  .00001748  00000-0  61225-4 0  9468
2 13138  51.6143 266.3124 0000556   6.4686 353.6393 15.31939365329953
1 13138U 82033A   88025.84376674  .00001749  00000-0  61225-4 0  9474
2 13138  51.6132 261.5932 0000723  19.1531 340.9496 15.31940368330108
1 13138U 82033A   88026.88751130  .00001750  00000-0  61225-4 0  9486
2 13138  51.6122 256.5581 0001258  33.8912 326.2227 15.31947261330266
1 13138U 82033A   88027.86601639  .00001750  00000-0  61225-4 0  9517
2 13138  51.6142 251.8400 0000928  32.1937 327.9138 15.31952060330417
1 13138U 82033A   88028.97498619  .00001750  00000-0  61229-4 0  9527
2 13138  51.6135 246.4891 0000934  51.0946 308.9732 15.31945151330580
1 13138U 82033A   88029.82303350  .00001734  00000-0  61229-4 0  9532
2 13138  51.6106 242.4008 0000971  50.3471 309.7197 15.31936310330716
1 13138U 82033A   88030.86678820  .00001711  00000-0  59999-4 0  9542
2 13138  51.6117 237.3640 0000970  49.6828 310.3981 15.31929508330876
1 13138U 82033A   88031.84531065  .00001711  00000-0  59999-4 0  9551
2 13138  51.6117 232.6453 0001067  41.4918 318.5813 15.31926310331024
1 13138U 82033A   88032.88907107  .00002884  00000-0  10383-3 0  9566
2 13138  51.6102 227.6093 0001116  50.6998 309.4053 15.31931683331188
1 13138U 82033A   88033.86758707  .00001152  00000-0  42125-4 0  9573
2 13138  51.6101 222.8898 0001048  50.2745 309.8285 15.31934862331337
1 13138U 82033A   88034.91133674  .00001484  00000-0  53278-4 0  9580
2 13138  51.6100 217.8548 0001072  46.1379 313.9836 15.31941721331493
1 13138U 82033A   88034.91161453  .00001501  00000-0  53278-4 0  9586
2 13138  51.6100 217.8548 0001072  46.1378 313.9836 15.31941722331493
1 13138U 82033A   88035.88984415  .00003892  00000-0  13487-3 0  9597
2 13138  51.6103 213.1341 0001333  47.5209 312.6004 15.31951965331644
1 13138U 82033A   88035.89012193  .00003891  00000-0  13487-3 0  9592
2 13138  51.6103 213.1341 0001333  47.5209 312.6004 15.31951965331644
1 13138U 82033A   88036.86834390  .00016362  00000-0  53292-3 0  9608
2 13138  51.6126 208.4135 0001251  51.1610 308.9462 15.31970100331797
1 13138U 82033A   88037.84682690  .00002305  00000-0  78875-4 0  9620
2 13138  51.6120 203.6936 0001455  51.6278 308.3882 15.31964232331944
1 13138U 82033A   88038.82533942  .00204016  00000-0  65178-2 0  9638
2 13138  51.6134 198.9745 0001455  55.1309 304.9817 15.31994096332095
1 13138U 82033A   88038.82561705  .00204016  00000-0  65178-2 0  9636
2 13138  51.6134 198.9745 0001455  55.1309 304.9817 15.31994097332096
1 13138U 82033A   88039.28193430  .00204116  00000-0  65178-2 0  9645
2 13138  51.6136 196.7750 0001605  34.4765 325.4406 15.32009737332162
1 13138U 82033A   88039.60811068  .00209813  00000-0  65178-2 0  9655
2 13138  51.6125 195.1961 0001324  53.4000 306.5819 15.31992437332219
1 13138U 82033A   88039.80382457  .00204471  00000-0  65178-2 0  9668
2 13138  51.6129 194.2524 0001260  44.9953 315.1067 15.32065604332241
1 13138U 82033A   88040.26039934  .00053075  00000-0  17036-2 0  9672
2 13138  51.6124 192.0542 0001729  40.2187 319.5528 15.31989497332312
1 13138U 82033A   88040.58661735  .00194710  00000-0  62205-2 0  9688
2 13138  51.6109 190.4773 0001378  50.2650 309.8035 15.31997267332363
1 13138U 82033A   88040.84754304  .00029805  00000-0  96144-3 0  9695
2 13138  51.6145 189.2204 0001516  54.8823 305.1700 15.31988349332408
1 13138U 82033A   88040.84782099  .00029805  00000-0  96144-3 0  9697
2 13138  51.6145 189.2203 0001516  54.8823 305.1700 15.31988349332407
1 13138U 82033A   88041.82601658  .00029904  00000-0  96144-3 0  9709
2 13138  51.6121 184.5012 0001416  70.3214 289.6560 15.32000526332552
1 13138U 82033A   88042.86972486  .00029818  00000-0  96144-3 0  9719
2 13138  51.6101 179.4673 0001508  64.0746 295.8535 15.32002710332714
1 13138U 82033A   88043.06545214  .00029907  00000-0  96144-3 0  9727
2 13138  51.6080 178.5244 0001722  61.3872 298.7108 15.32004152332745
1 13138U 82033A   88043.65253111  .00002794  00000-0  94439-4 0  9736
2 13138  51.6111 175.6911 0001553  75.4222 284.6126 15.31986792332838
1 13138U 82033A   88043.84824208  .00048150  00000-0  15450-2 0  9749
2 13138  51.6115 174.7453 0001512  75.2044 284.9298 15.32020085332869
1 13138U 82033A   88044.82666921  .00025341  00000-0  81820-3 0  9757
2 13138  51.6109 170.0251 0001438  76.1969 283.6645 15.32017979333018
1 13138U 82033A   88045.47903457  .00001900  00000-0  65899-4 0  9762
2 13138  51.6119 166.8800 0001381  60.0432 300.0768 15.31994888333119
1 13138U 82033A   88045.87042376  .00004236  00000-0  14560-3 0  9774
2 13138  51.6107 164.9894 0001527  76.5017 283.6387 15.32009715333177
1 13138U 82033A   88046.84888392  .00004237  00000-0  14560-3 0  9780
2 13138  51.6110 160.2743 0001552  66.0500 294.0528 15.32016134333325
1 13138U 82033A   88046.84916186  .00004236  00000-0  14560-3 0  9782
2 13138  51.6110 160.2743 0001552  66.0499 294.0528 15.32016135333323
1 13138U 82033A   88047.82734670  .00004205  00000-0  14560-3 0  9794
2 13138  51.6142 155.5498 0001547  74.5146 285.6038 15.32032603333475
1 13138U 82033A   88047.82762432  .00004238  00000-0  14561-3 0  9798
2 13138  51.6142 155.5497 0001547  74.5146 285.6038 15.32032603333474
1 13138U 82033A   88048.87102625  .00004240  00000-0  14560-3 0  9800
2 13138  51.6146 150.5171 0001516  62.4336 297.6348 15.32031967333632
1 13138U 82033A   88049.84948521  .00004241  00000-0  14560-3 0  9813
2 13138  51.6157 145.7949 0001500  63.2910 296.8106 15.32042381333784
1 13138U 82033A   88049.84976315  .00004240  00000-0  14561-3 0  9815
2 13138  51.6157 145.7949 0001500  63.2910 296.8106 15.32042381333784
1 13138U 82033A   88050.82793155  .00004239  00000-0  14560-3 0  9822
2 13138  51.6136 141.0751 0001471  71.9983 288.0835 15.32044093333935
1 13138U 82033A   88051.87160969  .00004239  00000-0  14560-3 0  9830
2 13138  51.6139 136.0407 0001731  82.1798 277.9003 15.32047771334095
1 13138U 82033A   88052.85005707  .00007058  00000-0  23531-3 0  9848
2 13138  51.6122 131.3198 0001730  85.6937 274.3930 15.32051543334243
1 13138U 82033A   88052.85033502  .00007057  00000-0  23531-3 0  9841
2 13138  51.6122 131.3197 0001730  85.6936 274.3930 15.32051544334242
1 13138U 82033A   88053.82849902  .00011377  00000-0  37267-3 0  9850
2 13138  51.6114 126.6003 0001835  88.1017 271.9799 15.32060675334397
1 13138U 82033A   88054.87216151  .00011380  00000-0  37267-3 0  9865
2 13138  51.6115 121.5649 0001811  90.7536 269.3124 15.32071660334554
1 13138U 82033A   88054.87243945  .00011379  00000-0  37267-3 0  9864
2 13138  51.6115 121.5648 0001811  90.7536 269.3124 15.32071661334554
1 13138U 82033A   88055.85059175  .00006779  00000-0  22625-3 0  9874
2 13138  51.6116 116.8434 0001831  93.3150 266.7336 15.32072660334701
1 13138U 82033A   88056.56811552  .01289765  00000-0  40981-1 0  9881
2 13138  51.6123 113.3805 0001830  95.8988 264.1929 15.32124006334812
1 13138U 82033A   88056.89426394  .00061764  00000-0  19741-2 0  9891
2 13138  51.6128 111.8091 0001806  84.4701 275.6540 15.32098352334862
1 13138U 82033A   88056.89454173  .00061763  00000-0  19741-2 0  9896
2 13138  51.6128 111.8090 0001806  84.4700 275.6540 15.32098352334860
1 13138U 82033A   88058.06830018  .00061681  00000-0  19741-2 0  9915
2 13138  51.6121 106.1491 0001288  81.3686 278.3443 15.32056825335040
1 13138U 82033A   88058.91632263  .00002874  00000-0  97172-4 0  9938
2 13138  51.6131 102.0525 0001737  97.5605 262.4706 15.32085678335171
1 13138U 82033A   88059.89475555  .00003359  00000-0  11744-3 0  9945
2 13138  51.6130  97.3325 0001750  95.7251 264.3918 15.32093042335323
1 13138U 82033A   88059.89503333  .00003358  00000-0  11744-3 0  9940
2 13138  51.6130  97.3324 0001750  95.7250 264.3918 15.32093043335322
1 13138U 82033A   88060.80794052  .00002273  00000-0  77597-4 0  9958
2 13138  51.6135  92.9264 0001767  99.0084 261.0948 15.32095269335465
1 13138U 82033A   88061.59067264  .00002274  00000-0  77597-4 0  9965
2 13138  51.6133  89.1512 0001638 103.9203 256.1996 15.32105614335589
1 13138U 82033A   88061.85158025  .00001558  00000-0  54858-4 0  9970
2 13138  51.6137  87.8915 0001796 102.3495 257.7523 15.32098503335622
1 13138U 82033A   88061.85185819  .00001558  00000-0  54858-4 0  9971
2 13138  51.6137  87.8915 0001796 102.3495 257.7523 15.32098504335623
1 13138U 82033A   88062.89522032  .00001827  00000-0  63399-4 0  9988
2 13138  51.6134  82.8553 0001962 105.7191 254.3944 15.32101857335781
1 13138U 82033A   88063.87362894  .00001811  00000-0  63399-4 0  9999
2 13138  51.6091  78.1402 0001838  82.0651 278.0301 15.32099462335939
1 13138U 82033A   88064.65636054  .00001826  00000-0  63399-4 0    18
2 13138  51.6107  74.3615 0001692 100.0701 260.0652 15.32103924336059
1 13138U 82033A   88064.91726578  .00001826  00000-0  63399-4 0    29
2 13138  51.6121  73.1001 0001781 104.0789 256.0411 15.32107647336098
1 13138U 82033A   88065.83044229  .00001827  00000-0  63399-4 0    39
2 13138  51.6121  68.6924 0001781 107.3684 252.7487 15.32111606336233
1 13138U 82033A   88066.87407024  .00001827  00000-0  63399-4 0    41
2 13138  51.6106  63.6611 0001652 107.5130 252.6089 15.32125188336393
1 13138U 82033A   88066.87434770  .00001826  00000-0  63399-4 0    48
2 13138  51.6106  63.6611 0001652 107.5130 252.6089 15.32125189336394
1 13138U 82033A   88067.85246162  .00001827  00000-0  63399-4 0    55
2 13138  51.6112  58.9395 0001673 110.9904 249.1092 15.32125870336546
1 13138U 82033A   88068.76563055  .00006991  00000-0  23273-3 0    63
2 13138  51.6112  54.5341 0001558 113.2852 246.8360 15.32134424336681
